{"ret":"Ok","areacount":87,"area":[{"area_id":"001 ","area_name":"北京","region_name":"北京","pinyin":"beijing"},{"area_id":"073 ","area_name":"上海","region_name":"上海","pinyin":"shanghai"},{"area_id":"198 ","area_name":"广州","region_name":"广东","pinyin":"guangzhou"},{"area_id":"200 ","area_name":"深圳","region_name":"广东","pinyin":"shenzhen"},{"area_id":"002 ","area_name":"天津","region_name":"天津","pinyin":"tianjin"},{"area_id":"236 ","area_name":"重庆","region_name":"重庆","pinyin":"zhongqing"},{"area_id":"237 ","area_name":"成都","region_name":"四川","pinyin":"chengdu"},{"area_id":"087 ","area_name":"杭州","region_name":"浙江","pinyin":"hangzhou"},{"area_id":"078 ","area_name":"苏州","region_name":"江苏","pinyin":"suzhou"},{"area_id":"168 ","area_name":"武汉","region_name":"湖北","pinyin":"wuhan"},{"area_id":"214 ","area_name":"东莞","region_name":"广东","pinyin":"dongguan"},{"area_id":"088 ","area_name":"宁波","region_name":"浙江","pinyin":"ningbo"},{"area_id":"114 ","area_name":"厦门","region_name":"福建","pinyin":"shamen"},{"area_id":"113 ","area_name":"福州","region_name":"福建","pinyin":"fuzhou"},{"area_id":"267 ","area_name":"昆明","region_name":"云南","pinyin":"kunming"},{"area_id":"037 ","area_name":"沈阳","region_name":"辽宁","pinyin":"shenyang"},{"area_id":"051 ","area_name":"长春","region_name":"吉林","pinyin":"changchun"},{"area_id":"133 ","area_name":"济南","region_name":"山东","pinyin":"jinan"},{"area_id":"150 ","area_name":"郑州","region_name":"河南","pinyin":"zhengzhou"},{"area_id":"184 ","area_name":"长沙","region_name":"湖南","pinyin":"changsha"},{"area_id":"098 ","area_name":"合肥","region_name":"安徽","pinyin":"hefei"},{"area_id":"060 ","area_name":"哈尔滨","region_name":"黑龙江","pinyin":"haerbin"},{"area_id":"003 ","area_name":"石家庄","region_name":"河北","pinyin":"shijiazhuang"},{"area_id":"122 ","area_name":"南昌","region_name":"江西","pinyin":"nanchang"},{"area_id":"203 ","area_name":"佛山","region_name":"广东","pinyin":"foshan"},{"area_id":"201 ","area_name":"珠海","region_name":"广东","pinyin":"zhuhai"},{"area_id":"134 ","area_name":"青岛","region_name":"山东","pinyin":"qingdao"},{"area_id":"025 ","area_name":"呼和浩特","region_name":"内蒙古","pinyin":"huhehaote"},{"area_id":"327 ","area_name":"乌鲁木齐","region_name":"新疆","pinyin":"wulumuqi"},{"area_id":"283 ","area_name":"拉萨","region_name":"西藏","pinyin":"lasa"},{"area_id":"014 ","area_name":"太原","region_name":"山西","pinyin":"taiyuan"},{"area_id":"219 ","area_name":"南宁","region_name":"广西","pinyin":"nanning"},{"area_id":"233 ","area_name":"海口","region_name":"海南","pinyin":"haikou"},{"area_id":"235 ","area_name":"三亚","region_name":"海南","pinyin":"sanya"},{"area_id":"258 ","area_name":"贵阳","region_name":"贵州","pinyin":"guiyang"},{"area_id":"314 ","area_name":"西宁","region_name":"青海","pinyin":"xining"},{"area_id":"322 ","area_name":"银川","region_name":"宁夏","pinyin":"yinchuan"},{"area_id":"004 ","area_name":"唐山","region_name":"河北","pinyin":"tangshan"},{"area_id":"005 ","area_name":"秦皇岛","region_name":"河北","pinyin":"qinhuangdao"},{"area_id":"006 ","area_name":"邯郸","region_name":"河北","pinyin":"handan"},{"area_id":"007 ","area_name":"邢台","region_name":"河北","pinyin":"xingtai"},{"area_id":"008 ","area_name":"保定","region_name":"河北","pinyin":"baoding"},{"area_id":"009 ","area_name":"张家口","region_name":"河北","pinyin":"zhangjiakou"},{"area_id":"010 ","area_name":"承德","region_name":"河北","pinyin":"chengde"},{"area_id":"011 ","area_name":"沧州","region_name":"河北","pinyin":"cangzhou"},{"area_id":"012 ","area_name":"廊坊","region_name":"河北","pinyin":"langfang"},{"area_id":"013 ","area_name":"衡水","region_name":"河北","pinyin":"hengshui"},{"area_id":"015 ","area_name":"大同","region_name":"山西","pinyin":"datong"},{"area_id":"016 ","area_name":"阳泉","region_name":"山西","pinyin":"yangquan"},{"area_id":"017 ","area_name":"长治","region_name":"山西","pinyin":"changzhi"},{"area_id":"018 ","area_name":"晋城","region_name":"山西","pinyin":"jincheng"},{"area_id":"019 ","area_name":"朔州","region_name":"山西","pinyin":"shuozhou"},{"area_id":"020 ","area_name":"忻州","region_name":"山西","pinyin":"xinzhou"},{"area_id":"021 ","area_name":"吕梁","region_name":"山西","pinyin":"lvliang"},{"area_id":"022 ","area_name":"晋中","region_name":"山西","pinyin":"jinzhong"},{"area_id":"023 ","area_name":"临汾","region_name":"山西","pinyin":"linfen"},{"area_id":"024 ","area_name":"运城","region_name":"山西","pinyin":"yuncheng"},{"area_id":"026 ","area_name":"包头","region_name":"内蒙古","pinyin":"baotou"},{"area_id":"027 ","area_name":"乌海","region_name":"内蒙古","pinyin":"wuhai"},{"area_id":"028 ","area_name":"赤峰","region_name":"内蒙古","pinyin":"chifeng"},{"area_id":"031 ","area_name":"通辽","region_name":"内蒙古","pinyin":"tongliao"},{"area_id":"039 ","area_name":"鞍山","region_name":"辽宁","pinyin":"anshan"},{"area_id":"040 ","area_name":"抚顺","region_name":"辽宁","pinyin":"fushun"},{"area_id":"041 ","area_name":"本溪","region_name":"辽宁","pinyin":"benxi"},{"area_id":"042 ","area_name":"丹东","region_name":"辽宁","pinyin":"dandong"},{"area_id":"043 ","area_name":"锦州","region_name":"辽宁","pinyin":"jinzhou"},{"area_id":"044 ","area_name":"营口","region_name":"辽宁","pinyin":"yingkou"},{"area_id":"045 ","area_name":"阜新","region_name":"辽宁","pinyin":"fuxin"},{"area_id":"046 ","area_name":"辽阳","region_name":"辽宁","pinyin":"liaoyang"},{"area_id":"047 ","area_name":"盘锦","region_name":"辽宁","pinyin":"panjin"},{"area_id":"048 ","area_name":"铁岭","region_name":"辽宁","pinyin":"tieling"},{"area_id":"049 ","area_name":"朝阳","region_name":"辽宁","pinyin":"zhaoyang"},{"area_id":"050 ","area_name":"葫芦岛","region_name":"辽宁","pinyin":"huludao"},{"area_id":"052 ","area_name":"吉林","region_name":"吉林","pinyin":"jilin"},{"area_id":"059 ","area_name":"延边","region_name":"吉林","pinyin":"yanbian"},{"area_id":"072 ","area_name":"大兴安岭","region_name":"黑龙江","pinyin":"daxinganling"},{"area_id":"123 ","area_name":"景德镇","region_name":"江西","pinyin":"jingdezhen"},{"area_id":"179 ","area_name":"恩施","region_name":"湖北","pinyin":"enshi"},{"area_id":"183 ","area_name":"神农架","region_name":"湖北","pinyin":"shennongjia"},{"area_id":"271 ","area_name":"楚雄","region_name":"云南","pinyin":"chuxiong"},{"area_id":"272 ","area_name":"红河","region_name":"云南","pinyin":"honghe"},{"area_id":"273 ","area_name":"文山","region_name":"云南","pinyin":"wenshan"},{"area_id":"279 ","area_name":"丽江","region_name":"云南","pinyin":"lijiang"},{"area_id":"074 ","area_name":"南京","region_name":"江苏","pinyin":"nanjing"},{"area_id":"038 ","area_name":"大连","region_name":"辽宁","pinyin":"dalian"},{"area_id":"075 ","area_name":"无锡","region_name":"江苏","pinyin":"wuxi"},{"area_id":"300 ","area_name":"兰州","region_name":"甘肃","pinyin":"lanzhou"}]}